[{"id":1,"name":"The Urban Bistro","description":"Modern European cuisine in a sophisticated setting with an extensive wine list","cuisine":"European","price_range":"$$$","address":"123 Main St, Downtown","phone":"555-0123","email":"contact@urbanbistro.com","image_url":"https://images.unsplash.com/photo-1517248135467-4c7edcad34c4","opening_hours":"Mon-Sun: 11:00 AM - 10:00 PM","rating":"0","total_reviews":0},{"id":2,"name":"Sakura Japanese","description":"Authentic Japanese cuisine featuring fresh sushi and traditional dishes","cuisine":"Japanese","price_range":"$$","address":"456 Cherry Blossom Ave","phone":"555-0124","email":"info@sakurajapanese.com","image_url":"https://images.unsplash.com/photo-1579027989536-b7b1f875659b","opening_hours":"Tue-Sun: 12:00 PM - 9:30 PM","rating":"0","total_reviews":0},{"id":3,"name":"Mediterranean Terrace","description":"Fresh Mediterranean flavors with a beautiful outdoor dining space","cuisine":"Mediterranean","price_range":"$$","address":"789 Olive Grove","phone":"555-0125","email":"hello@medterrace.com","image_url":"https://images.unsplash.com/photo-1559339352-11d035aa65de","opening_hours":"Mon-Sun: 11:30 AM - 11:00 PM","rating":"0","total_reviews":0},{"id":4,"name":"The Urban Bistro","description":"Modern European cuisine in a sophisticated setting with an extensive wine list","cuisine":"European","price_range":"$$$","address":"123 Main St, Downtown","phone":"555-0123","email":"contact@urbanbistro.com","image_url":"https://images.unsplash.com/photo-1517248135467-4c7edcad34c4","opening_hours":"Mon-Sun: 11:00 AM - 10:00 PM","rating":"0","total_reviews":0},{"id":5,"name":"Sakura Japanese","description":"Authentic Japanese cuisine featuring fresh sushi and traditional dishes","cuisine":"Japanese","price_range":"$$","address":"456 Cherry Blossom Ave","phone":"555-0124","email":"info@sakurajapanese.com","image_url":"https://images.unsplash.com/photo-1579027989536-b7b1f875659b","opening_hours":"Tue-Sun: 12:00 PM - 9:30 PM","rating":"0","total_reviews":0},{"id":6,"name":"Mediterranean Terrace","description":"Fresh Mediterranean flavors with a beautiful outdoor dining space","cuisine":"Mediterranean","price_range":"$$","address":"789 Olive Grove","phone":"555-0125","email":"hello@medterrace.com","image_url":"https://images.unsplash.com/photo-1559339352-11d035aa65de","opening_hours":"Mon-Sun: 11:30 AM - 11:00 PM","rating":"0","total_reviews":0},{"id":7,"name":"The Urban Bistro","description":"Modern European cuisine in a sophisticated setting with an extensive wine list","cuisine":"European","price_range":"$$$","address":"123 Main St, Downtown","phone":"555-0123","email":"contact@urbanbistro.com","image_url":"https://images.unsplash.com/photo-1517248135467-4c7edcad34c4","opening_hours":"Mon-Sun: 11:00 AM - 10:00 PM","rating":"0","total_reviews":0},{"id":8,"name":"Sakura Japanese","description":"Authentic Japanese cuisine featuring fresh sushi and traditional dishes","cuisine":"Japanese","price_range":"$$","address":"456 Cherry Blossom Ave","phone":"555-0124","email":"info@sakurajapanese.com","image_url":"https://images.unsplash.com/photo-1579027989536-b7b1f875659b","opening_hours":"Tue-Sun: 12:00 PM - 9:30 PM","rating":"0","total_reviews":0},{"id":9,"name":"Mediterranean Terrace","description":"Fresh Mediterranean flavors with a beautiful outdoor dining space","cuisine":"Mediterranean","price_range":"$$","address":"789 Olive Grove","phone":"555-0125","email":"hello@medterrace.com","image_url":"https://images.unsplash.com/photo-1559339352-11d035aa65de","opening_hours":"Mon-Sun: 11:30 AM - 11:00 PM","rating":"0","total_reviews":0},{"id":10,"name":"The Urban Bistro","description":"Modern European cuisine in a sophisticated setting with an extensive wine list","cuisine":"European","price_range":"$$$","address":"123 Main St, Downtown","phone":"555-0123","email":"contact@urbanbistro.com","image_url":"https://images.unsplash.com/photo-1517248135467-4c7edcad34c4","opening_hours":"Mon-Sun: 11:00 AM - 10:00 PM","rating":"0","total_reviews":0},{"id":11,"name":"Sakura Japanese","description":"Authentic Japanese cuisine featuring fresh sushi and traditional dishes","cuisine":"Japanese","price_range":"$$","address":"456 Cherry Blossom Ave","phone":"555-0124","email":"info@sakurajapanese.com","image_url":"https://images.unsplash.com/photo-1579027989536-b7b1f875659b","opening_hours":"Tue-Sun: 12:00 PM - 9:30 PM","rating":"0","total_reviews":0},{"id":12,"name":"Mediterranean Terrace","description":"Fresh Mediterranean flavors with a beautiful outdoor dining space","cuisine":"Mediterranean","price_range":"$$","address":"789 Olive Grove","phone":"555-0125","email":"hello@medterrace.com","image_url":"https://images.unsplash.com/photo-1559339352-11d035aa65de","opening_hours":"Mon-Sun: 11:30 AM - 11:00 PM","rating":"0","total_reviews":0},{"id":13,"name":"The Urban Bistro","description":"Modern European cuisine in a sophisticated setting with an extensive wine list","cuisine":"European","price_range":"$$$","address":"123 Main St, Downtown","phone":"555-0123","email":"contact@urbanbistro.com","image_url":"https://images.unsplash.com/photo-1517248135467-4c7edcad34c4","opening_hours":"Mon-Sun: 11:00 AM - 10:00 PM","rating":"0","total_reviews":0},{"id":14,"name":"Sakura Japanese","description":"Authentic Japanese cuisine featuring fresh sushi and traditional dishes","cuisine":"Japanese","price_range":"$$","address":"456 Cherry Blossom Ave","phone":"555-0124","email":"info@sakurajapanese.com","image_url":"https://images.unsplash.com/photo-1579027989536-b7b1f875659b","opening_hours":"Tue-Sun: 12:00 PM - 9:30 PM","rating":"0","total_reviews":0},{"id":15,"name":"Mediterranean Terrace","description":"Fresh Mediterranean flavors with a beautiful outdoor dining space","cuisine":"Mediterranean","price_range":"$$","address":"789 Olive Grove","phone":"555-0125","email":"hello@medterrace.com","image_url":"https://images.unsplash.com/photo-1559339352-11d035aa65de","opening_hours":"Mon-Sun: 11:30 AM - 11:00 PM","rating":"0","total_reviews":0},{"id":16,"name":"The Urban Bistro","description":"Modern European cuisine in a sophisticated setting with an extensive wine list","cuisine":"European","price_range":"$$$","address":"123 Main St, Downtown","phone":"555-0123","email":"contact@urbanbistro.com","image_url":"https://images.unsplash.com/photo-1517248135467-4c7edcad34c4","opening_hours":"Mon-Sun: 11:00 AM - 10:00 PM","rating":"0","total_reviews":0},{"id":17,"name":"Sakura Japanese","description":"Authentic Japanese cuisine featuring fresh sushi and traditional dishes","cuisine":"Japanese","price_range":"$$","address":"456 Cherry Blossom Ave","phone":"555-0124","email":"info@sakurajapanese.com","image_url":"https://images.unsplash.com/photo-1579027989536-b7b1f875659b","opening_hours":"Tue-Sun: 12:00 PM - 9:30 PM","rating":"0","total_reviews":0},{"id":18,"name":"Mediterranean Terrace","description":"Fresh Mediterranean flavors with a beautiful outdoor dining space","cuisine":"Mediterranean","price_range":"$$","address":"789 Olive Grove","phone":"555-0125","email":"hello@medterrace.com","image_url":"https://images.unsplash.com/photo-1559339352-11d035aa65de","opening_hours":"Mon-Sun: 11:30 AM - 11:00 PM","rating":"0","total_reviews":0},{"id":19,"name":"The Urban Bistro","description":"Modern European cuisine in a sophisticated setting with an extensive wine list","cuisine":"European","price_range":"$$$","address":"123 Main St, Downtown","phone":"555-0123","email":"contact@urbanbistro.com","image_url":"https://images.unsplash.com/photo-1517248135467-4c7edcad34c4","opening_hours":"Mon-Sun: 11:00 AM - 10:00 PM","rating":"0","total_reviews":0},{"id":20,"name":"Sakura Japanese","description":"Authentic Japanese cuisine featuring fresh sushi and traditional dishes","cuisine":"Japanese","price_range":"$$","address":"456 Cherry Blossom Ave","phone":"555-0124","email":"info@sakurajapanese.com","image_url":"https://images.unsplash.com/photo-1579027989536-b7b1f875659b","opening_hours":"Tue-Sun: 12:00 PM - 9:30 PM","rating":"0","total_reviews":0},{"id":21,"name":"Mediterranean Terrace","description":"Fresh Mediterranean flavors with a beautiful outdoor dining space","cuisine":"Mediterranean","price_range":"$$","address":"789 Olive Grove","phone":"555-0125","email":"hello@medterrace.com","image_url":"https://images.unsplash.com/photo-1559339352-11d035aa65de","opening_hours":"Mon-Sun: 11:30 AM - 11:00 PM","rating":"0","total_reviews":0},{"id":22,"name":"The Urban Bistro","description":"Modern European cuisine in a sophisticated setting with an extensive wine list","cuisine":"European","price_range":"$$$","address":"123 Main St, Downtown","phone":"555-0123","email":"contact@urbanbistro.com","image_url":"https://images.unsplash.com/photo-1517248135467-4c7edcad34c4","opening_hours":"Mon-Sun: 11:00 AM - 10:00 PM","rating":"0","total_reviews":0},{"id":23,"name":"Sakura Japanese","description":"Authentic Japanese cuisine featuring fresh sushi and traditional dishes","cuisine":"Japanese","price_range":"$$","address":"456 Cherry Blossom Ave","phone":"555-0124","email":"info@sakurajapanese.com","image_url":"https://images.unsplash.com/photo-1579027989536-b7b1f875659b","opening_hours":"Tue-Sun: 12:00 PM - 9:30 PM","rating":"0","total_reviews":0},{"id":24,"name":"Mediterranean Terrace","description":"Fresh Mediterranean flavors with a beautiful outdoor dining space","cuisine":"Mediterranean","price_range":"$$","address":"789 Olive Grove","phone":"555-0125","email":"hello@medterrace.com","image_url":"https://images.unsplash.com/photo-1559339352-11d035aa65de","opening_hours":"Mon-Sun: 11:30 AM - 11:00 PM","rating":"0","total_reviews":0},{"id":25,"name":"The Urban Bistro","description":"Modern European cuisine in a sophisticated setting with an extensive wine list","cuisine":"European","price_range":"$$$","address":"123 Main St, Downtown","phone":"555-0123","email":"contact@urbanbistro.com","image_url":"https://images.unsplash.com/photo-1517248135467-4c7edcad34c4","opening_hours":"Mon-Sun: 11:00 AM - 10:00 PM","rating":"0","total_reviews":0},{"id":26,"name":"Sakura Japanese","description":"Authentic Japanese cuisine featuring fresh sushi and traditional dishes","cuisine":"Japanese","price_range":"$$","address":"456 Cherry Blossom Ave","phone":"555-0124","email":"info@sakurajapanese.com","image_url":"https://images.unsplash.com/photo-1579027989536-b7b1f875659b","opening_hours":"Tue-Sun: 12:00 PM - 9:30 PM","rating":"0","total_reviews":0},{"id":27,"name":"Mediterranean Terrace","description":"Fresh Mediterranean flavors with a beautiful outdoor dining space","cuisine":"Mediterranean","price_range":"$$","address":"789 Olive Grove","phone":"555-0125","email":"hello@medterrace.com","image_url":"https://images.unsplash.com/photo-1559339352-11d035aa65de","opening_hours":"Mon-Sun: 11:30 AM - 11:00 PM","rating":"0","total_reviews":0},{"id":28,"name":"The Urban Bistro","description":"Modern European cuisine in a sophisticated setting with an extensive wine list","cuisine":"European","price_range":"$$$","address":"123 Main St, Downtown","phone":"555-0123","email":"contact@urbanbistro.com","image_url":"https://images.unsplash.com/photo-1517248135467-4c7edcad34c4","opening_hours":"Mon-Sun: 11:00 AM - 10:00 PM","rating":"0","total_reviews":0},{"id":29,"name":"Sakura Japanese","description":"Authentic Japanese cuisine featuring fresh sushi and traditional dishes","cuisine":"Japanese","price_range":"$$","address":"456 Cherry Blossom Ave","phone":"555-0124","email":"info@sakurajapanese.com","image_url":"https://images.unsplash.com/photo-1579027989536-b7b1f875659b","opening_hours":"Tue-Sun: 12:00 PM - 9:30 PM","rating":"0","total_reviews":0},{"id":30,"name":"Mediterranean Terrace","description":"Fresh Mediterranean flavors with a beautiful outdoor dining space","cuisine":"Mediterranean","price_range":"$$","address":"789 Olive Grove","phone":"555-0125","email":"hello@medterrace.com","image_url":"https://images.unsplash.com/photo-1559339352-11d035aa65de","opening_hours":"Mon-Sun: 11:30 AM - 11:00 PM","rating":"0","total_reviews":0},{"id":31,"name":"The Urban Bistro","description":"Modern European cuisine in a sophisticated setting with an extensive wine list","cuisine":"European","price_range":"$$$","address":"123 Main St, Downtown","phone":"555-0123","email":"contact@urbanbistro.com","image_url":"https://images.unsplash.com/photo-1517248135467-4c7edcad34c4","opening_hours":"Mon-Sun: 11:00 AM - 10:00 PM","rating":"0","total_reviews":0},{"id":32,"name":"Sakura Japanese","description":"Authentic Japanese cuisine featuring fresh sushi and traditional dishes","cuisine":"Japanese","price_range":"$$","address":"456 Cherry Blossom Ave","phone":"555-0124","email":"info@sakurajapanese.com","image_url":"https://images.unsplash.com/photo-1579027989536-b7b1f875659b","opening_hours":"Tue-Sun: 12:00 PM - 9:30 PM","rating":"0","total_reviews":0},{"id":33,"name":"Mediterranean Terrace","description":"Fresh Mediterranean flavors with a beautiful outdoor dining space","cuisine":"Mediterranean","price_range":"$$","address":"789 Olive Grove","phone":"555-0125","email":"hello@medterrace.com","image_url":"https://images.unsplash.com/photo-1559339352-11d035aa65de","opening_hours":"Mon-Sun: 11:30 AM - 11:00 PM","rating":"0","total_reviews":0},{"id":34,"name":"The Urban Bistro","description":"Modern European cuisine in a sophisticated setting with an extensive wine list","cuisine":"European","price_range":"$$$","address":"123 Main St, Downtown","phone":"555-0123","email":"contact@urbanbistro.com","image_url":"https://images.unsplash.com/photo-1517248135467-4c7edcad34c4","opening_hours":"Mon-Sun: 11:00 AM - 10:00 PM","rating":"0","total_reviews":0},{"id":35,"name":"Sakura Japanese","description":"Authentic Japanese cuisine featuring fresh sushi and traditional dishes","cuisine":"Japanese","price_range":"$$","address":"456 Cherry Blossom Ave","phone":"555-0124","email":"info@sakurajapanese.com","image_url":"https://images.unsplash.com/photo-1579027989536-b7b1f875659b","opening_hours":"Tue-Sun: 12:00 PM - 9:30 PM","rating":"0","total_reviews":0},{"id":36,"name":"Mediterranean Terrace","description":"Fresh Mediterranean flavors with a beautiful outdoor dining space","cuisine":"Mediterranean","price_range":"$$","address":"789 Olive Grove","phone":"555-0125","email":"hello@medterrace.com","image_url":"https://images.unsplash.com/photo-1559339352-11d035aa65de","opening_hours":"Mon-Sun: 11:30 AM - 11:00 PM","rating":"0","total_reviews":0},{"id":37,"name":"The Urban Bistro","description":"Modern European cuisine in a sophisticated setting with an extensive wine list","cuisine":"European","price_range":"$$$","address":"123 Main St, Downtown","phone":"555-0123","email":"contact@urbanbistro.com","image_url":"https://images.unsplash.com/photo-1517248135467-4c7edcad34c4","opening_hours":"Mon-Sun: 11:00 AM - 10:00 PM","rating":"0","total_reviews":0},{"id":38,"name":"Sakura Japanese","description":"Authentic Japanese cuisine featuring fresh sushi and traditional dishes","cuisine":"Japanese","price_range":"$$","address":"456 Cherry Blossom Ave","phone":"555-0124","email":"info@sakurajapanese.com","image_url":"https://images.unsplash.com/photo-1579027989536-b7b1f875659b","opening_hours":"Tue-Sun: 12:00 PM - 9:30 PM","rating":"0","total_reviews":0},{"id":39,"name":"Mediterranean Terrace","description":"Fresh Mediterranean flavors with a beautiful outdoor dining space","cuisine":"Mediterranean","price_range":"$$","address":"789 Olive Grove","phone":"555-0125","email":"hello@medterrace.com","image_url":"https://images.unsplash.com/photo-1559339352-11d035aa65de","opening_hours":"Mon-Sun: 11:30 AM - 11:00 PM","rating":"0","total_reviews":0},{"id":40,"name":"The Urban Bistro","description":"Modern European cuisine in a sophisticated setting with an extensive wine list","cuisine":"European","price_range":"$$$","address":"123 Main St, Downtown","phone":"555-0123","email":"contact@urbanbistro.com","image_url":"https://images.unsplash.com/photo-1517248135467-4c7edcad34c4","opening_hours":"Mon-Sun: 11:00 AM - 10:00 PM","rating":"0","total_reviews":0},{"id":41,"name":"Sakura Japanese","description":"Authentic Japanese cuisine featuring fresh sushi and traditional dishes","cuisine":"Japanese","price_range":"$$","address":"456 Cherry Blossom Ave","phone":"555-0124","email":"info@sakurajapanese.com","image_url":"https://images.unsplash.com/photo-1579027989536-b7b1f875659b","opening_hours":"Tue-Sun: 12:00 PM - 9:30 PM","rating":"0","total_reviews":0},{"id":42,"name":"Mediterranean Terrace","description":"Fresh Mediterranean flavors with a beautiful outdoor dining space","cuisine":"Mediterranean","price_range":"$$","address":"789 Olive Grove","phone":"555-0125","email":"hello@medterrace.com","image_url":"https://images.unsplash.com/photo-1559339352-11d035aa65de","opening_hours":"Mon-Sun: 11:30 AM - 11:00 PM","rating":"0","total_reviews":0},{"id":43,"name":"The Urban Bistro","description":"Modern European cuisine in a sophisticated setting with an extensive wine list","cuisine":"European","price_range":"$$$","address":"123 Main St, Downtown","phone":"555-0123","email":"contact@urbanbistro.com","image_url":"https://images.unsplash.com/photo-1517248135467-4c7edcad34c4","opening_hours":"Mon-Sun: 11:00 AM - 10:00 PM","rating":"0","total_reviews":0},{"id":44,"name":"Sakura Japanese","description":"Authentic Japanese cuisine featuring fresh sushi and traditional dishes","cuisine":"Japanese","price_range":"$$","address":"456 Cherry Blossom Ave","phone":"555-0124","email":"info@sakurajapanese.com","image_url":"https://images.unsplash.com/photo-1579027989536-b7b1f875659b","opening_hours":"Tue-Sun: 12:00 PM - 9:30 PM","rating":"0","total_reviews":0},{"id":45,"name":"Mediterranean Terrace","description":"Fresh Mediterranean flavors with a beautiful outdoor dining space","cuisine":"Mediterranean","price_range":"$$","address":"789 Olive Grove","phone":"555-0125","email":"hello@medterrace.com","image_url":"https://images.unsplash.com/photo-1559339352-11d035aa65de","opening_hours":"Mon-Sun: 11:30 AM - 11:00 PM","rating":"0","total_reviews":0},{"id":46,"name":"The Urban Bistro","description":"Modern European cuisine in a sophisticated setting with an extensive wine list","cuisine":"European","price_range":"$$$","address":"123 Main St, Downtown","phone":"555-0123","email":"contact@urbanbistro.com","image_url":"https://images.unsplash.com/photo-1517248135467-4c7edcad34c4","opening_hours":"Mon-Sun: 11:00 AM - 10:00 PM","rating":"0","total_reviews":0},{"id":47,"name":"Sakura Japanese","description":"Authentic Japanese cuisine featuring fresh sushi and traditional dishes","cuisine":"Japanese","price_range":"$$","address":"456 Cherry Blossom Ave","phone":"555-0124","email":"info@sakurajapanese.com","image_url":"https://images.unsplash.com/photo-1579027989536-b7b1f875659b","opening_hours":"Tue-Sun: 12:00 PM - 9:30 PM","rating":"0","total_reviews":0},{"id":48,"name":"Mediterranean Terrace","description":"Fresh Mediterranean flavors with a beautiful outdoor dining space","cuisine":"Mediterranean","price_range":"$$","address":"789 Olive Grove","phone":"555-0125","email":"hello@medterrace.com","image_url":"https://images.unsplash.com/photo-1559339352-11d035aa65de","opening_hours":"Mon-Sun: 11:30 AM - 11:00 PM","rating":"0","total_reviews":0},{"id":49,"name":"The Urban Bistro","description":"Modern European cuisine in a sophisticated setting with an extensive wine list","cuisine":"European","price_range":"$$$","address":"123 Main St, Downtown","phone":"555-0123","email":"contact@urbanbistro.com","image_url":"https://images.unsplash.com/photo-1517248135467-4c7edcad34c4","opening_hours":"Mon-Sun: 11:00 AM - 10:00 PM","rating":"0","total_reviews":0},{"id":50,"name":"Sakura Japanese","description":"Authentic Japanese cuisine featuring fresh sushi and traditional dishes","cuisine":"Japanese","price_range":"$$","address":"456 Cherry Blossom Ave","phone":"555-0124","email":"info@sakurajapanese.com","image_url":"https://images.unsplash.com/photo-1579027989536-b7b1f875659b","opening_hours":"Tue-Sun: 12:00 PM - 9:30 PM","rating":"0","total_reviews":0},{"id":51,"name":"Mediterranean Terrace","description":"Fresh Mediterranean flavors with a beautiful outdoor dining space","cuisine":"Mediterranean","price_range":"$$","address":"789 Olive Grove","phone":"555-0125","email":"hello@medterrace.com","image_url":"https://images.unsplash.com/photo-1559339352-11d035aa65de","opening_hours":"Mon-Sun: 11:30 AM - 11:00 PM","rating":"0","total_reviews":0},{"id":52,"name":"The Urban Bistro","description":"Modern European cuisine in a sophisticated setting with an extensive wine list","cuisine":"European","price_range":"$$$","address":"123 Main St, Downtown","phone":"555-0123","email":"contact@urbanbistro.com","image_url":"https://images.unsplash.com/photo-1517248135467-4c7edcad34c4","opening_hours":"Mon-Sun: 11:00 AM - 10:00 PM","rating":"0","total_reviews":0},{"id":53,"name":"Sakura Japanese","description":"Authentic Japanese cuisine featuring fresh sushi and traditional dishes","cuisine":"Japanese","price_range":"$$","address":"456 Cherry Blossom Ave","phone":"555-0124","email":"info@sakurajapanese.com","image_url":"https://images.unsplash.com/photo-1579027989536-b7b1f875659b","opening_hours":"Tue-Sun: 12:00 PM - 9:30 PM","rating":"0","total_reviews":0},{"id":54,"name":"Mediterranean Terrace","description":"Fresh Mediterranean flavors with a beautiful outdoor dining space","cuisine":"Mediterranean","price_range":"$$","address":"789 Olive Grove","phone":"555-0125","email":"hello@medterrace.com","image_url":"https://images.unsplash.com/photo-1559339352-11d035aa65de","opening_hours":"Mon-Sun: 11:30 AM - 11:00 PM","rating":"0","total_reviews":0},{"id":55,"name":"The Urban Bistro","description":"Modern European cuisine in a sophisticated setting with an extensive wine list","cuisine":"European","price_range":"$$$","address":"123 Main St, Downtown","phone":"555-0123","email":"contact@urbanbistro.com","image_url":"https://images.unsplash.com/photo-1517248135467-4c7edcad34c4","opening_hours":"Mon-Sun: 11:00 AM - 10:00 PM","rating":"0","total_reviews":0},{"id":56,"name":"Sakura Japanese","description":"Authentic Japanese cuisine featuring fresh sushi and traditional dishes","cuisine":"Japanese","price_range":"$$","address":"456 Cherry Blossom Ave","phone":"555-0124","email":"info@sakurajapanese.com","image_url":"https://images.unsplash.com/photo-1579027989536-b7b1f875659b","opening_hours":"Tue-Sun: 12:00 PM - 9:30 PM","rating":"0","total_reviews":0},{"id":57,"name":"Mediterranean Terrace","description":"Fresh Mediterranean flavors with a beautiful outdoor dining space","cuisine":"Mediterranean","price_range":"$$","address":"789 Olive Grove","phone":"555-0125","email":"hello@medterrace.com","image_url":"https://images.unsplash.com/photo-1559339352-11d035aa65de","opening_hours":"Mon-Sun: 11:30 AM - 11:00 PM","rating":"0","total_reviews":0},{"id":58,"name":"The Urban Bistro","description":"Modern European cuisine in a sophisticated setting with an extensive wine list","cuisine":"European","price_range":"$$$","address":"123 Main St, Downtown","phone":"555-0123","email":"contact@urbanbistro.com","image_url":"https://images.unsplash.com/photo-1517248135467-4c7edcad34c4","opening_hours":"Mon-Sun: 11:00 AM - 10:00 PM","rating":"0","total_reviews":0},{"id":59,"name":"Sakura Japanese","description":"Authentic Japanese cuisine featuring fresh sushi and traditional dishes","cuisine":"Japanese","price_range":"$$","address":"456 Cherry Blossom Ave","phone":"555-0124","email":"info@sakurajapanese.com","image_url":"https://images.unsplash.com/photo-1579027989536-b7b1f875659b","opening_hours":"Tue-Sun: 12:00 PM - 9:30 PM","rating":"0","total_reviews":0},{"id":60,"name":"Mediterranean Terrace","description":"Fresh Mediterranean flavors with a beautiful outdoor dining space","cuisine":"Mediterranean","price_range":"$$","address":"789 Olive Grove","phone":"555-0125","email":"hello@medterrace.com","image_url":"https://images.unsplash.com/photo-1559339352-11d035aa65de","opening_hours":"Mon-Sun: 11:30 AM - 11:00 PM","rating":"0","total_reviews":0},{"id":61,"name":"The Urban Bistro","description":"Modern European cuisine in a sophisticated setting with an extensive wine list","cuisine":"European","price_range":"$$$","address":"123 Main St, Downtown","phone":"555-0123","email":"contact@urbanbistro.com","image_url":"https://images.unsplash.com/photo-1517248135467-4c7edcad34c4","opening_hours":"Mon-Sun: 11:00 AM - 10:00 PM","rating":"0","total_reviews":0},{"id":62,"name":"Sakura Japanese","description":"Authentic Japanese cuisine featuring fresh sushi and traditional dishes","cuisine":"Japanese","price_range":"$$","address":"456 Cherry Blossom Ave","phone":"555-0124","email":"info@sakurajapanese.com","image_url":"https://images.unsplash.com/photo-1579027989536-b7b1f875659b","opening_hours":"Tue-Sun: 12:00 PM - 9:30 PM","rating":"0","total_reviews":0},{"id":63,"name":"Mediterranean Terrace","description":"Fresh Mediterranean flavors with a beautiful outdoor dining space","cuisine":"Mediterranean","price_range":"$$","address":"789 Olive Grove","phone":"555-0125","email":"hello@medterrace.com","image_url":"https://images.unsplash.com/photo-1559339352-11d035aa65de","opening_hours":"Mon-Sun: 11:30 AM - 11:00 PM","rating":"0","total_reviews":0},{"id":64,"name":"The Urban Bistro","description":"Modern European cuisine in a sophisticated setting with an extensive wine list","cuisine":"European","price_range":"$$$","address":"123 Main St, Downtown","phone":"555-0123","email":"contact@urbanbistro.com","image_url":"https://images.unsplash.com/photo-1517248135467-4c7edcad34c4","opening_hours":"Mon-Sun: 11:00 AM - 10:00 PM","rating":"0","total_reviews":0},{"id":65,"name":"Sakura Japanese","description":"Authentic Japanese cuisine featuring fresh sushi and traditional dishes","cuisine":"Japanese","price_range":"$$","address":"456 Cherry Blossom Ave","phone":"555-0124","email":"info@sakurajapanese.com","image_url":"https://images.unsplash.com/photo-1579027989536-b7b1f875659b","opening_hours":"Tue-Sun: 12:00 PM - 9:30 PM","rating":"0","total_reviews":0},{"id":66,"name":"Mediterranean Terrace","description":"Fresh Mediterranean flavors with a beautiful outdoor dining space","cuisine":"Mediterranean","price_range":"$$","address":"789 Olive Grove","phone":"555-0125","email":"hello@medterrace.com","image_url":"https://images.unsplash.com/photo-1559339352-11d035aa65de","opening_hours":"Mon-Sun: 11:30 AM - 11:00 PM","rating":"0","total_reviews":0},{"id":67,"name":"The Urban Bistro","description":"Modern European cuisine in a sophisticated setting with an extensive wine list","cuisine":"European","price_range":"$$$","address":"123 Main St, Downtown","phone":"555-0123","email":"contact@urbanbistro.com","image_url":"https://images.unsplash.com/photo-1517248135467-4c7edcad34c4","opening_hours":"Mon-Sun: 11:00 AM - 10:00 PM","rating":"0","total_reviews":0},{"id":68,"name":"Sakura Japanese","description":"Authentic Japanese cuisine featuring fresh sushi and traditional dishes","cuisine":"Japanese","price_range":"$$","address":"456 Cherry Blossom Ave","phone":"555-0124","email":"info@sakurajapanese.com","image_url":"https://images.unsplash.com/photo-1579027989536-b7b1f875659b","opening_hours":"Tue-Sun: 12:00 PM - 9:30 PM","rating":"0","total_reviews":0},{"id":69,"name":"Mediterranean Terrace","description":"Fresh Mediterranean flavors with a beautiful outdoor dining space","cuisine":"Mediterranean","price_range":"$$","address":"789 Olive Grove","phone":"555-0125","email":"hello@medterrace.com","image_url":"https://images.unsplash.com/photo-1559339352-11d035aa65de","opening_hours":"Mon-Sun: 11:30 AM - 11:00 PM","rating":"0","total_reviews":0},{"id":70,"name":"The Urban Bistro","description":"Modern European cuisine in a sophisticated setting with an extensive wine list","cuisine":"European","price_range":"$$$","address":"123 Main St, Downtown","phone":"555-0123","email":"contact@urbanbistro.com","image_url":"https://images.unsplash.com/photo-1517248135467-4c7edcad34c4","opening_hours":"Mon-Sun: 11:00 AM - 10:00 PM","rating":"0","total_reviews":0},{"id":71,"name":"Sakura Japanese","description":"Authentic Japanese cuisine featuring fresh sushi and traditional dishes","cuisine":"Japanese","price_range":"$$","address":"456 Cherry Blossom Ave","phone":"555-0124","email":"info@sakurajapanese.com","image_url":"https://images.unsplash.com/photo-1579027989536-b7b1f875659b","opening_hours":"Tue-Sun: 12:00 PM - 9:30 PM","rating":"0","total_reviews":0},{"id":72,"name":"Mediterranean Terrace","description":"Fresh Mediterranean flavors with a beautiful outdoor dining space","cuisine":"Mediterranean","price_range":"$$","address":"789 Olive Grove","phone":"555-0125","email":"hello@medterrace.com","image_url":"https://images.unsplash.com/photo-1559339352-11d035aa65de","opening_hours":"Mon-Sun: 11:30 AM - 11:00 PM","rating":"0","total_reviews":0},{"id":73,"name":"The Urban Bistro","description":"Modern European cuisine in a sophisticated setting with an extensive wine list","cuisine":"European","price_range":"$$$","address":"123 Main St, Downtown","phone":"555-0123","email":"contact@urbanbistro.com","image_url":"https://images.unsplash.com/photo-1517248135467-4c7edcad34c4","opening_hours":"Mon-Sun: 11:00 AM - 10:00 PM","rating":"0","total_reviews":0},{"id":74,"name":"Sakura Japanese","description":"Authentic Japanese cuisine featuring fresh sushi and traditional dishes","cuisine":"Japanese","price_range":"$$","address":"456 Cherry Blossom Ave","phone":"555-0124","email":"info@sakurajapanese.com","image_url":"https://images.unsplash.com/photo-1579027989536-b7b1f875659b","opening_hours":"Tue-Sun: 12:00 PM - 9:30 PM","rating":"0","total_reviews":0},{"id":75,"name":"Mediterranean Terrace","description":"Fresh Mediterranean flavors with a beautiful outdoor dining space","cuisine":"Mediterranean","price_range":"$$","address":"789 Olive Grove","phone":"555-0125","email":"hello@medterrace.com","image_url":"https://images.unsplash.com/photo-1559339352-11d035aa65de","opening_hours":"Mon-Sun: 11:30 AM - 11:00 PM","rating":"0","total_reviews":0},{"id":76,"name":"The Urban Bistro","description":"Modern European cuisine in a sophisticated setting with an extensive wine list","cuisine":"European","price_range":"$$$","address":"123 Main St, Downtown","phone":"555-0123","email":"contact@urbanbistro.com","image_url":"https://images.unsplash.com/photo-1517248135467-4c7edcad34c4","opening_hours":"Mon-Sun: 11:00 AM - 10:00 PM","rating":"0","total_reviews":0},{"id":77,"name":"Sakura Japanese","description":"Authentic Japanese cuisine featuring fresh sushi and traditional dishes","cuisine":"Japanese","price_range":"$$","address":"456 Cherry Blossom Ave","phone":"555-0124","email":"info@sakurajapanese.com","image_url":"https://images.unsplash.com/photo-1579027989536-b7b1f875659b","opening_hours":"Tue-Sun: 12:00 PM - 9:30 PM","rating":"0","total_reviews":0},{"id":78,"name":"Mediterranean Terrace","description":"Fresh Mediterranean flavors with a beautiful outdoor dining space","cuisine":"Mediterranean","price_range":"$$","address":"789 Olive Grove","phone":"555-0125","email":"hello@medterrace.com","image_url":"https://images.unsplash.com/photo-1559339352-11d035aa65de","opening_hours":"Mon-Sun: 11:30 AM - 11:00 PM","rating":"0","total_reviews":0},{"id":79,"name":"The Urban Bistro","description":"Modern European cuisine in a sophisticated setting with an extensive wine list","cuisine":"European","price_range":"$$$","address":"123 Main St, Downtown","phone":"555-0123","email":"contact@urbanbistro.com","image_url":"https://images.unsplash.com/photo-1517248135467-4c7edcad34c4","opening_hours":"Mon-Sun: 11:00 AM - 10:00 PM","rating":"0","total_reviews":0},{"id":80,"name":"Sakura Japanese","description":"Authentic Japanese cuisine featuring fresh sushi and traditional dishes","cuisine":"Japanese","price_range":"$$","address":"456 Cherry Blossom Ave","phone":"555-0124","email":"info@sakurajapanese.com","image_url":"https://images.unsplash.com/photo-1579027989536-b7b1f875659b","opening_hours":"Tue-Sun: 12:00 PM - 9:30 PM","rating":"0","total_reviews":0},{"id":81,"name":"The Urban Bistro","description":"Modern European cuisine in a sophisticated setting with an extensive wine list","cuisine":"European","price_range":"$$$","address":"123 Main St, Downtown","phone":"555-0123","email":"contact@urbanbistro.com","image_url":"https://images.unsplash.com/photo-1517248135467-4c7edcad34c4","opening_hours":"Mon-Sun: 11:00 AM - 10:00 PM","rating":"0","total_reviews":0},{"id":82,"name":"Sakura Japanese","description":"Authentic Japanese cuisine featuring fresh sushi and traditional dishes","cuisine":"Japanese","price_range":"$$","address":"456 Cherry Blossom Ave","phone":"555-0124","email":"info@sakurajapanese.com","image_url":"https://images.unsplash.com/photo-1579027989536-b7b1f875659b","opening_hours":"Tue-Sun: 12:00 PM - 9:30 PM","rating":"0","total_reviews":0},{"id":83,"name":"Mediterranean Terrace","description":"Fresh Mediterranean flavors with a beautiful outdoor dining space","cuisine":"Mediterranean","price_range":"$$","address":"789 Olive Grove","phone":"555-0125","email":"hello@medterrace.com","image_url":"https://images.unsplash.com/photo-1559339352-11d035aa65de","opening_hours":"Mon-Sun: 11:30 AM - 11:00 PM","rating":"0","total_reviews":0},{"id":84,"name":"The Urban Bistro","description":"Modern European cuisine in a sophisticated setting with an extensive wine list","cuisine":"European","price_range":"$$$","address":"123 Main St, Downtown","phone":"555-0123","email":"contact@urbanbistro.com","image_url":"https://images.unsplash.com/photo-1517248135467-4c7edcad34c4","opening_hours":"Mon-Sun: 11:00 AM - 10:00 PM","rating":"0","total_reviews":0},{"id":85,"name":"Sakura Japanese","description":"Authentic Japanese cuisine featuring fresh sushi and traditional dishes","cuisine":"Japanese","price_range":"$$","address":"456 Cherry Blossom Ave","phone":"555-0124","email":"info@sakurajapanese.com","image_url":"https://images.unsplash.com/photo-1579027989536-b7b1f875659b","opening_hours":"Tue-Sun: 12:00 PM - 9:30 PM","rating":"0","total_reviews":0},{"id":86,"name":"Mediterranean Terrace","description":"Fresh Mediterranean flavors with a beautiful outdoor dining space","cuisine":"Mediterranean","price_range":"$$","address":"789 Olive Grove","phone":"555-0125","email":"hello@medterrace.com","image_url":"https://images.unsplash.com/photo-1559339352-11d035aa65de","opening_hours":"Mon-Sun: 11:30 AM - 11:00 PM","rating":"0","total_reviews":0},{"id":87,"name":"The Urban Bistro","description":"Modern European cuisine in a sophisticated setting with an extensive wine list","cuisine":"European","price_range":"$$$","address":"123 Main St, Downtown","phone":"555-0123","email":"contact@urbanbistro.com","image_url":"https://images.unsplash.com/photo-1517248135467-4c7edcad34c4","opening_hours":"Mon-Sun: 11:00 AM - 10:00 PM","rating":"0","total_reviews":0},{"id":88,"name":"Sakura Japanese","description":"Authentic Japanese cuisine featuring fresh sushi and traditional dishes","cuisine":"Japanese","price_range":"$$","address":"456 Cherry Blossom Ave","phone":"555-0124","email":"info@sakurajapanese.com","image_url":"https://images.unsplash.com/photo-1579027989536-b7b1f875659b","opening_hours":"Tue-Sun: 12:00 PM - 9:30 PM","rating":"0","total_reviews":0},{"id":89,"name":"Mediterranean Terrace","description":"Fresh Mediterranean flavors with a beautiful outdoor dining space","cuisine":"Mediterranean","price_range":"$$","address":"789 Olive Grove","phone":"555-0125","email":"hello@medterrace.com","image_url":"https://images.unsplash.com/photo-1559339352-11d035aa65de","opening_hours":"Mon-Sun: 11:30 AM - 11:00 PM","rating":"0","total_reviews":0},{"id":90,"name":"The Urban Bistro","description":"Modern European cuisine in a sophisticated setting with an extensive wine list","cuisine":"European","price_range":"$$$","address":"123 Main St, Downtown","phone":"555-0123","email":"contact@urbanbistro.com","image_url":"https://images.unsplash.com/photo-1517248135467-4c7edcad34c4","opening_hours":"Mon-Sun: 11:00 AM - 10:00 PM","rating":"0","total_reviews":0},{"id":91,"name":"Sakura Japanese","description":"Authentic Japanese cuisine featuring fresh sushi and traditional dishes","cuisine":"Japanese","price_range":"$$","address":"456 Cherry Blossom Ave","phone":"555-0124","email":"info@sakurajapanese.com","image_url":"https://images.unsplash.com/photo-1579027989536-b7b1f875659b","opening_hours":"Tue-Sun: 12:00 PM - 9:30 PM","rating":"0","total_reviews":0},{"id":92,"name":"Mediterranean Terrace","description":"Fresh Mediterranean flavors with a beautiful outdoor dining space","cuisine":"Mediterranean","price_range":"$$","address":"789 Olive Grove","phone":"555-0125","email":"hello@medterrace.com","image_url":"https://images.unsplash.com/photo-1559339352-11d035aa65de","opening_hours":"Mon-Sun: 11:30 AM - 11:00 PM","rating":"0","total_reviews":0},{"id":93,"name":"The Urban Bistro","description":"Modern European cuisine in a sophisticated setting with an extensive wine list","cuisine":"European","price_range":"$$$","address":"123 Main St, Downtown","phone":"555-0123","email":"contact@urbanbistro.com","image_url":"https://images.unsplash.com/photo-1517248135467-4c7edcad34c4","opening_hours":"Mon-Sun: 11:00 AM - 10:00 PM","rating":"0","total_reviews":0},{"id":94,"name":"Sakura Japanese","description":"Authentic Japanese cuisine featuring fresh sushi and traditional dishes","cuisine":"Japanese","price_range":"$$","address":"456 Cherry Blossom Ave","phone":"555-0124","email":"info@sakurajapanese.com","image_url":"https://images.unsplash.com/photo-1579027989536-b7b1f875659b","opening_hours":"Tue-Sun: 12:00 PM - 9:30 PM","rating":"0","total_reviews":0},{"id":95,"name":"Mediterranean Terrace","description":"Fresh Mediterranean flavors with a beautiful outdoor dining space","cuisine":"Mediterranean","price_range":"$$","address":"789 Olive Grove","phone":"555-0125","email":"hello@medterrace.com","image_url":"https://images.unsplash.com/photo-1559339352-11d035aa65de","opening_hours":"Mon-Sun: 11:30 AM - 11:00 PM","rating":"0","total_reviews":0},{"id":96,"name":"The Urban Bistro","description":"Modern European cuisine in a sophisticated setting with an extensive wine list","cuisine":"European","price_range":"$$$","address":"123 Main St, Downtown","phone":"555-0123","email":"contact@urbanbistro.com","image_url":"https://images.unsplash.com/photo-1517248135467-4c7edcad34c4","opening_hours":"Mon-Sun: 11:00 AM - 10:00 PM","rating":"0","total_reviews":0},{"id":97,"name":"Sakura Japanese","description":"Authentic Japanese cuisine featuring fresh sushi and traditional dishes","cuisine":"Japanese","price_range":"$$","address":"456 Cherry Blossom Ave","phone":"555-0124","email":"info@sakurajapanese.com","image_url":"https://images.unsplash.com/photo-1579027989536-b7b1f875659b","opening_hours":"Tue-Sun: 12:00 PM - 9:30 PM","rating":"0","total_reviews":0},{"id":98,"name":"Mediterranean Terrace","description":"Fresh Mediterranean flavors with a beautiful outdoor dining space","cuisine":"Mediterranean","price_range":"$$","address":"789 Olive Grove","phone":"555-0125","email":"hello@medterrace.com","image_url":"https://images.unsplash.com/photo-1559339352-11d035aa65de","opening_hours":"Mon-Sun: 11:30 AM - 11:00 PM","rating":"0","total_reviews":0}]